<?xml version="1.0" encoding="UTF-8"?>
<gpx version="1.1" creator="Ciclovia del Navile" xmlns="http://www.topografix.com/GPX/1/1" xmlns:xsi="http://www.w3.org/2001/XMLSchema-instance" xsi:schemaLocation="http://www.topografix.com/GPX/1/1 http://www.topografix.com/GPX/1/1/gpx.xsd">
  <metadata>
    <name>Ciclovia del Navile</name>
    <desc>Casalecchio di Reno to Malalbergo via Bologna and the Navile canal.</desc>
  </metadata>
  <wpt lat="44.4775" lon="11.286">
    <name>Start · Via Don Filippo Ercolani</name>
    <desc>Ride start in Casalecchio di Reno. From here the route crosses to Bologna and picks up the Navile canal.</desc>
    <sym>Flag</sym>
  </wpt>
  <wpt lat="44.5045" lon="11.3478">
    <name>Porta Galliera</name>
    <desc>Gateway to the Ciclovia del Navile, by the Montagnola park near Bologna Centrale station.</desc>
    <sym>Waypoint</sym>
  </wpt>
  <wpt lat="44.509" lon="11.3388">
    <name>Sostegno della Bova</name>
    <desc>Historic canal lock just outside Porta Lame, where the Navile canal was born (1221).</desc>
    <sym>Waypoint</sym>
  </wpt>
  <wpt lat="44.516" lon="11.346">
    <name>Parco di Villa Angeletti</name>
    <desc>Large green park along the right bank of the canal - a good first rest stop.</desc>
    <sym>Waypoint</sym>
  </wpt>
  <wpt lat="44.523" lon="11.3432">
    <name>Sostegno del Battiferro</name>
    <desc>The best-preserved lock on the whole canal.</desc>
    <sym>Waypoint</sym>
  </wpt>
  <wpt lat="44.5242" lon="11.3437">
    <name>Museo del Patrimonio Industriale</name>
    <desc>Industrial Heritage Museum, via della Beverara 123. Bologna&#x27;s economy from the Modern age onward.</desc>
    <sym>Waypoint</sym>
  </wpt>
  <wpt lat="44.53" lon="11.347">
    <name>Sostegno del Torreggiani</name>
    <desc>One of the 15th-16th century canal locks along the urban stretch.</desc>
    <sym>Waypoint</sym>
  </wpt>
  <wpt lat="44.536" lon="11.35">
    <name>Sostegno del Landi</name>
    <desc>15th-16th century canal lock.</desc>
    <sym>Waypoint</sym>
  </wpt>
  <wpt lat="44.542" lon="11.353">
    <name>Sostegno del Grassi (Vignola)</name>
    <desc>Lock rebuilt by the architect Vignola.</desc>
    <sym>Waypoint</sym>
  </wpt>
  <wpt lat="44.5488" lon="11.3552">
    <name>Ponte della Bionda / Corticella</name>
    <desc>Cross the Ponte della Bionda to reach Corticella, site of Bologna&#x27;s first river port.</desc>
    <sym>Waypoint</sym>
  </wpt>
  <wpt lat="44.5512" lon="11.3585">
    <name>Ponte di Corticella</name>
    <desc>Bridge documented since the 13th century, dating to 1289.</desc>
    <sym>Waypoint</sym>
  </wpt>
  <wpt lat="44.576" lon="11.3625">
    <name>Castel Maggiore</name>
    <desc>End of the urban stretch; the landscape opens into farmland.</desc>
    <sym>Waypoint</sym>
  </wpt>
  <wpt lat="44.6265" lon="11.348">
    <name>San Marino di Bentivoglio - Villa Smeraldi</name>
    <desc>Museo della Civilta Contadina (Museum of Rural Life) inside the majestic Villa Smeraldi.</desc>
    <sym>Waypoint</sym>
  </wpt>
  <wpt lat="44.636" lon="11.352">
    <name>Bentivoglio</name>
    <desc>Village on the plain; small detours reach museums and nature areas.</desc>
    <sym>Waypoint</sym>
  </wpt>
  <wpt lat="44.648" lon="11.372">
    <name>Oasi La Rizza</name>
    <desc>Protected natural area, ideal for birdwatching.</desc>
    <sym>Waypoint</sym>
  </wpt>
  <wpt lat="44.7157" lon="11.5343">
    <name>Malalbergo (end)</name>
    <desc>End of the route on the plain, along natural paths and short road sections - ride with care.</desc>
    <sym>Waypoint</sym>
  </wpt>
  <wpt lat="44.4886" lon="11.2846">
    <name>Chiusa di Casalecchio</name>
    <desc>Medieval sluice-dam on the River Reno (rebuilt 14th c.), a National Monument that still feeds Bologna&#x27;s canals.</desc>
    <sym>Tourist Info</sym>
  </wpt>
  <wpt lat="44.493" lon="11.284">
    <name>Parco della Chiusa (Parco Talon)</name>
    <desc>Large riverside park of woods, meadows and old villa grounds, just above the Chiusa.</desc>
    <sym>Tourist Info</sym>
  </wpt>
  <wpt lat="44.4998" lon="11.3452">
    <name>Parco della Montagnola</name>
    <desc>Bologna&#x27;s oldest public park, with a monumental stair down toward the old Navile port quarter.</desc>
    <sym>Tourist Info</sym>
  </wpt>
  <wpt lat="44.5242" lon="11.3437">
    <name>Museo del Patrimonio Industriale</name>
    <desc>Working models and machines telling the story of Bologna&#x27;s water-powered industry (via della Beverara 123).</desc>
    <sym>Tourist Info</sym>
  </wpt>
  <wpt lat="44.6372" lon="11.352">
    <name>Castello di Bentivoglio (Ponte Poledrano)</name>
    <desc>15th-century castle of Giovanni II Bentivoglio, with the frescoed &#x27;Sala del Vaso&#x27;.</desc>
    <sym>Tourist Info</sym>
  </wpt>
  <wpt lat="44.648" lon="11.372">
    <name>Oasi La Rizza</name>
    <desc>Protected wetland reserve in the Bentivoglio woods - hides, trails and great birdwatching.</desc>
    <sym>Tourist Info</sym>
  </wpt>
  <trk>
    <name>Ciclovia del Navile</name>
    <trkseg>
      <trkpt lat="44.4775" lon="11.286"></trkpt>
      <trkpt lat="44.481" lon="11.295"></trkpt>
      <trkpt lat="44.485" lon="11.306"></trkpt>
      <trkpt lat="44.489" lon="11.317"></trkpt>
      <trkpt lat="44.4935" lon="11.328"></trkpt>
      <trkpt lat="44.4985" lon="11.339"></trkpt>
      <trkpt lat="44.5045" lon="11.3478"></trkpt>
      <trkpt lat="44.5062" lon="11.347"></trkpt>
      <trkpt lat="44.508" lon="11.343"></trkpt>
      <trkpt lat="44.509" lon="11.3388"></trkpt>
      <trkpt lat="44.5105" lon="11.3388"></trkpt>
      <trkpt lat="44.513" lon="11.342"></trkpt>
      <trkpt lat="44.516" lon="11.346"></trkpt>
      <trkpt lat="44.5195" lon="11.345"></trkpt>
      <trkpt lat="44.523" lon="11.3432"></trkpt>
      <trkpt lat="44.5242" lon="11.3437"></trkpt>
      <trkpt lat="44.5275" lon="11.3452"></trkpt>
      <trkpt lat="44.53" lon="11.347"></trkpt>
      <trkpt lat="44.5335" lon="11.3488"></trkpt>
      <trkpt lat="44.536" lon="11.35"></trkpt>
      <trkpt lat="44.54" lon="11.352"></trkpt>
      <trkpt lat="44.542" lon="11.353"></trkpt>
      <trkpt lat="44.546" lon="11.3545"></trkpt>
      <trkpt lat="44.5488" lon="11.3552"></trkpt>
      <trkpt lat="44.5512" lon="11.3585"></trkpt>
      <trkpt lat="44.556" lon="11.36"></trkpt>
      <trkpt lat="44.562" lon="11.3615"></trkpt>
      <trkpt lat="44.569" lon="11.362"></trkpt>
      <trkpt lat="44.576" lon="11.3625"></trkpt>
      <trkpt lat="44.582" lon="11.36"></trkpt>
      <trkpt lat="44.59" lon="11.356"></trkpt>
      <trkpt lat="44.598" lon="11.352"></trkpt>
      <trkpt lat="44.606" lon="11.35"></trkpt>
      <trkpt lat="44.614" lon="11.349"></trkpt>
      <trkpt lat="44.621" lon="11.3485"></trkpt>
      <trkpt lat="44.6265" lon="11.348"></trkpt>
      <trkpt lat="44.632" lon="11.35"></trkpt>
      <trkpt lat="44.636" lon="11.352"></trkpt>
      <trkpt lat="44.641" lon="11.36"></trkpt>
      <trkpt lat="44.648" lon="11.372"></trkpt>
      <trkpt lat="44.656" lon="11.39"></trkpt>
      <trkpt lat="44.665" lon="11.415"></trkpt>
      <trkpt lat="44.678" lon="11.445"></trkpt>
      <trkpt lat="44.69" lon="11.48"></trkpt>
      <trkpt lat="44.7" lon="11.505"></trkpt>
      <trkpt lat="44.708" lon="11.522"></trkpt>
      <trkpt lat="44.7157" lon="11.5343"></trkpt>
    </trkseg>
  </trk>
</gpx>
